ORBCOMM-X               
1 21576U 91050C   25112.15157670  .00000667  00000+0  21129-3 0  9995
2 21576  98.3468 179.8825 0003658  17.2467 342.8847 14.43210761774036
ORBCOMM FM01            
1 23545U 95017A   25112.47052515  .00011273  00000+0  11927-2 0  9996
2 23545  69.9639 212.9983 0002290 339.7904  20.3159 14.89360969604213
ORBCOMM FM02            
1 23546U 95017B   25112.44272264  .00016425  00000+0  17034-2 0  9998
2 23546  69.9644 232.6186 0002955   3.5365 356.5810 14.90040554603853
ORBCOMM FM08            
1 25112U 97084A   25112.62264775  .00002767  00000+0  81591-3 0  9997
2 25112  45.0135 274.5626 0005463 319.2247  40.8195 14.45605380433338
ORBCOMM FM10            
1 25113U 97084B   25112.52652780  .00003229  00000+0  94927-3 0  9995
2 25113  45.0147 277.3075 0004452 277.8276  82.2070 14.45396151608462
ORBCOMM FM11            
1 25114U 97084C   25112.59063803  .00003024  00000+0  89628-3 0  9990
2 25114  45.0132 277.5327 0005201 282.0421  77.9847 14.45148244433436
ORBCOMM FM12            
1 25115U 97084D   25112.83045127  .00002911  00000+0  86391-3 0  9995
2 25115  45.0138 276.1386 0004262 277.1571  82.8796 14.45170968433504
ORBCOMM FM09            
1 25116U 97084E   25112.58153510  .00002883  00000+0  85794-3 0  9998
2 25116  45.0144 278.2110 0005785 268.8679  91.1509 14.45051946433438
